[{"OBJECT_NAME":"WILDFIRE 6","OBJECT_ID":"2023-133G","EPOCH":"2026-03-09T22:36:17.475552","MEAN_MOTION":13.85319465,"ECCENTRICITY":0.0004585,"INCLINATION":80.992,"RA_OF_ASC_NODE":102.4593,"ARG_OF_PERICENTER":287.0723,"MEAN_ANOMALY":72.9931,"EPHEMERIS_TYPE":0,"CLASSIFICATION_TYPE":"U","NORAD_CAT_ID":57763,"ELEMENT_SET_NO":999,"REV_AT_EPOCH":12727,"BSTAR":5.6844456e-5,"MEAN_MOTION_DOT":7.6e-7,"MEAN_MOTION_DDOT":0},{"OBJECT_NAME":"CZ-4 DEB","OBJECT_ID":"1990-081AP","EPOCH":"2026-03-09T12:22:58.570752","MEAN_MOTION":14.05061953,"ECCENTRICITY":0.0099025,"INCLINATION":99.422,"RA_OF_ASC_NODE":268.191,"ARG_OF_PERICENTER":84.023,"MEAN_ANOMALY":331.0554,"EPHEMERIS_TYPE":0,"CLASSIFICATION_TYPE":"U","NORAD_CAT_ID":20879,"ELEMENT_SET_NO":999,"REV_AT_EPOCH":62765,"BSTAR":0.00078819874,"MEAN_MOTION_DOT":1.28e-5,"MEAN_MOTION_DDOT":0}]
